ONEWEB-0306             
1 49188U 21083C   23283.44042841 -.00000010  00000+0 -58321-4 0  9994
2 49188  87.9209 170.5359 0001903  83.6207 276.5141 13.18688117102043
ONEWEB-0307             
1 49189U 21083D   23283.37298688 -.00000601  00000+0 -16799-2 0  9996
2 49189  87.9040 155.4040 0001601  75.2579 284.8728 13.13469713103464
ONEWEB-0320             
1 49190U 21083E   23282.83974265  .00000002  00000+0 -26619-4 0  9998
2 49190  87.9216 170.6789 0001698  72.5759 287.5559 13.18685568101920
ONEWEB-0321             
1 49191U 21083F   23283.45403449  .00000001  00000+0 -29645-4 0  9990
2 49191  87.9142 109.7003 0001986  80.0792 280.0565 13.20773572108650
ONEWEB-0322             
1 49192U 21083G   23283.36876117 -.00000629  00000+0 -17561-2 0  9996
2 49192  87.9039 155.3937 0001814  56.0965 304.0336 13.13469863103457
ONEWEB-0324             
1 49193U 21083H   23282.74910389  .00000006  00000+0 -18275-4 0  9991
2 49193  87.9212 170.6764 0001504  87.8126 272.3178 13.18687538100652
ONEWEB-0325             
1 49194U 21083J   23283.43620350  .00000061  00000+0  12166-3 0  9997
2 49194  87.9396 170.4988 0001822  74.5878 285.5456 13.18690747102037
ONEWEB-0326             
1 49195U 21083K   23283.45096339 -.00000008  00000+0 -53000-4 0  9990
2 49195  87.9214 170.5275 0001463  96.8121 263.3177 13.18686308102027
